[{"OBJECT_NAME":"OTB-3-GAZELLE","OBJECT_ID":"2022-127A","EPOCH":"2026-03-09T22:46:18.860160","MEAN_MOTION":14.42635336,"ECCENTRICITY":0.00141015,"INCLINATION":98.3911,"RA_OF_ASC_NODE":62.1873,"ARG_OF_PERICENTER":125.0273,"MEAN_ANOMALY":235.2243,"EPHEMERIS_TYPE":0,"CLASSIFICATION_TYPE":"U","NORAD_CAT_ID":54023,"ELEMENT_SET_NO":999,"REV_AT_EPOCH":18005,"BSTAR":6.3190972e-5,"MEAN_MOTION_DOT":1.67e-6,"MEAN_MOTION_DDOT":0},{"OBJECT_NAME":"COSMOS 2251 DEB","OBJECT_ID":"1993-036ASW","EPOCH":"2026-03-07T21:05:47.842080","MEAN_MOTION":13.88818808,"ECCENTRICITY":0.02510577,"INCLINATION":73.8423,"RA_OF_ASC_NODE":262.3964,"ARG_OF_PERICENTER":333.0208,"MEAN_ANOMALY":25.8043,"EPHEMERIS_TYPE":0,"CLASSIFICATION_TYPE":"U","NORAD_CAT_ID":35824,"ELEMENT_SET_NO":999,"REV_AT_EPOCH":85409,"BSTAR":0.0011777268,"MEAN_MOTION_DOT":1.804e-5,"MEAN_MOTION_DDOT":0}]
